{
  "type": "FeatureCollection",
  "features": [
    {
      "type": "Feature",
      "properties": {
        "norad_id": 37589,
        "name": "FENGYUN 1C DEB",
        "group": "fengyun-1c-debris",
        "lat": -31.05175385986166,
        "lon": 57.988665106358404,
        "alt_km": 839.7599537788938,
        "timestamp": "2025-12-06T22:38:43.017426+00:00",
        "meta_object_name": "FENGYUN 1C DEB",
        "meta_object_id": "1999-025EKH",
        "meta_epoch": "2025-12-02T23:49:55.171488",
        "meta_mean_motion": 14.07988933,
        "meta_eccentricity": 0.01206156,
        "meta_inclination": 99.0733,
        "meta_ra_of_asc_node": 239.5393,
        "meta_arg_of_pericenter": 291.4169,
        "meta_mean_anomaly": 67.4168,
        "meta_ephemeris_type": 0,
        "meta_classification_type": "U",
        "meta_norad_cat_id": 37589,
        "meta_element_set_no": 999,
        "meta_rev_at_epoch": 82447,
        "meta_bstar": 0.0045555953,
        "meta_mean_motion_dot": 8.24e-05,
        "meta_mean_motion_ddot": 0,
        "tle_line1": "1 37589U 99025EKH 25336.99299967  .00008240  00000+0  45556-2 0  9996",
        "tle_line2": "2 37589  99.0733 239.5393 0120615 291.4169  67.4168 14.07988933824475"
      },
      "geometry": {
        "type": "Point",
        "coordinates": [
          57.988665106358404,
          -31.05175385986166
        ]
      }
    },
    {
      "type": "Feature",
      "properties": {
        "norad_id": 37594,
        "name": "FENGYUN 1C DEB",
        "group": "fengyun-1c-debris",
        "lat": -10.217871738044439,
        "lon": 12.024808835833353,
        "alt_km": 831.5980060419106,
        "timestamp": "2025-12-06T22:38:43.017436+00:00",
        "meta_object_name": "FENGYUN 1C DEB",
        "meta_object_id": "1999-025EKN",
        "meta_epoch": "2025-12-01T20:10:06.711744",
        "meta_mean_motion": 14.11100402,
        "meta_eccentricity": 0.00849769,
        "meta_inclination": 98.7356,
        "meta_ra_of_asc_node": 5.4727,
        "meta_arg_of_pericenter": 301.0362,
        "meta_mean_anomaly": 58.2487,
        "meta_ephemeris_type": 0,
        "meta_classification_type": "U",
        "meta_norad_cat_id": 37594,
        "meta_element_set_no": 999,
        "meta_rev_at_epoch": 77608,
        "meta_bstar": 0.00031068206,
        "meta_mean_motion_dot": 5.35e-06,
        "meta_mean_motion_ddot": 0,
        "tle_line1": "1 37594U 99025EKN 25335.84035546  .00000535  00000+0  31068-3 0  9999",
        "tle_line2": "2 37594  98.7356   5.4727 0084976 301.0362  58.2487 14.11100402776088"
      },
      "geometry": {
        "type": "Point",
        "coordinates": [
          12.024808835833353,
          -10.217871738044439
        ]
      }
    },
    {
      "type": "Feature",
      "properties": {
        "norad_id": 37600,
        "name": "FENGYUN 1C DEB",
        "group": "fengyun-1c-debris",
        "lat": 44.296667758694696,
        "lon": 129.10017554653044,
        "alt_km": 704.2862488387127,
        "timestamp": "2025-12-06T22:38:43.017446+00:00",
        "meta_object_name": "FENGYUN 1C DEB",
        "meta_object_id": "1999-025EKU",
        "meta_epoch": "2025-12-05T16:54:41.229504",
        "meta_mean_motion": 13.82454545,
        "meta_eccentricity": 0.03574715,
        "meta_inclination": 98.9362,
        "meta_ra_of_asc_node": 136.7535,
        "meta_arg_of_pericenter": 68.678,
        "meta_mean_anomaly": 295.2139,
        "meta_ephemeris_type": 0,
        "meta_classification_type": "U",
        "meta_norad_cat_id": 37600,
        "meta_element_set_no": 999,
        "meta_rev_at_epoch": 88390,
        "meta_bstar": 0.0047689903,
        "meta_mean_motion_dot": 8.396e-05,
        "meta_mean_motion_ddot": 0,
        "tle_line1": "1 37600U 99025EKU 25339.70464386  .00008396  00000+0  47690-2 0  9994",
        "tle_line2": "2 37600  98.9362 136.7535 0357471  68.6780 295.2139 13.82454545883907"
      },
      "geometry": {
        "type": "Point",
        "coordinates": [
          129.10017554653044,
          44.296667758694696
        ]
      }
    },
    {
      "type": "Feature",
      "properties": {
        "norad_id": 37683,
        "name": "FENGYUN 1C DEB",
        "group": "fengyun-1c-debris",
        "lat": -10.505474522148186,
        "lon": -96.50842099056823,
        "alt_km": 1519.1718676898809,
        "timestamp": "2025-12-06T22:38:43.017456+00:00",
        "meta_object_name": "FENGYUN 1C DEB",
        "meta_object_id": "1999-025EKY",
        "meta_epoch": "2025-12-02T13:11:44.275200",
        "meta_mean_motion": 13.31856332,
        "meta_eccentricity": 0.0584424,
        "meta_inclination": 98.0017,
        "meta_ra_of_asc_node": 258.5506,
        "meta_arg_of_pericenter": 151.0621,
        "meta_mean_anomaly": 26.3812,
        "meta_ephemeris_type": 0,
        "meta_classification_type": "U",
        "meta_norad_cat_id": 37683,
        "meta_element_set_no": 999,
        "meta_rev_at_epoch": 29104,
        "meta_bstar": 0.00139877,
        "meta_mean_motion_dot": 1.732e-05,
        "meta_mean_motion_ddot": 0,
        "tle_line1": "1 37683U 99025EKY 25336.54981800  .00001732  00000+0  13988-2 0  9999",
        "tle_line2": "2 37683  98.0017 258.5506 0584424 151.0621  26.3812 13.31856332291041"
      },
      "geometry": {
        "type": "Point",
        "coordinates": [
          -96.50842099056823,
          -10.505474522148186
        ]
      }
    },
    {
      "type": "Feature",
      "properties": {
        "norad_id": 37686,
        "name": "FENGYUN 1C DEB",
        "group": "fengyun-1c-debris",
        "lat": -63.50002930384522,
        "lon": 18.612666237832997,
        "alt_km": 1280.9095320776978,
        "timestamp": "2025-12-06T22:38:43.017466+00:00",
        "meta_object_name": "FENGYUN 1C DEB",
        "meta_object_id": "1999-025ELB",
        "meta_epoch": "2025-12-02T07:33:22.437792",
        "meta_mean_motion": 13.35350269,
        "meta_eccentricity": 0.0396452,
        "meta_inclination": 99.0209,
        "meta_ra_of_asc_node": 355.9344,
        "meta_arg_of_pericenter": 68.1356,
        "meta_mean_anomaly": 310.8807,
        "meta_ephemeris_type": 0,
        "meta_classification_type": "U",
        "meta_norad_cat_id": 37686,
        "meta_element_set_no": 999,
        "meta_rev_at_epoch": 60488,
        "meta_bstar": 0.0007759,
        "meta_mean_motion_dot": 5.81e-06,
        "meta_mean_motion_ddot": 0,
        "tle_line1": "1 37686U 99025ELB 25336.31484303  .00000581  00000+0  77590-3 0  9994",
        "tle_line2": "2 37686  99.0209 355.9344 0396452  68.1356 310.8807 13.35350269604882"
      },
      "geometry": {
        "type": "Point",
        "coordinates": [
          18.612666237832997,
          -63.50002930384522
        ]
      }
    },
    {
      "type": "Feature",
      "properties": {
        "norad_id": 37687,
        "name": "FENGYUN 1C DEB",
        "group": "fengyun-1c-debris",
        "lat": 30.10998734950613,
        "lon": 11.985991816050069,
        "alt_km": 707.7362928726634,
        "timestamp": "2025-12-06T22:38:43.017476+00:00",
        "meta_object_name": "FENGYUN 1C DEB",
        "meta_object_id": "1999-025ELC",
        "meta_epoch": "2025-12-04T22:31:35.154912",
        "meta_mean_motion": 13.8519089,
        "meta_eccentricity": 0.0333745,
        "meta_inclination": 98.2045,
        "meta_ra_of_asc_node": 15.0265,
        "meta_arg_of_pericenter": 20.5325,
        "meta_mean_anomaly": 96.3024,
        "meta_ephemeris_type": 0,
        "meta_classification_type": "U",
        "meta_norad_cat_id": 37687,
        "meta_element_set_no": 999,
        "meta_rev_at_epoch": 83146,
        "meta_bstar": 0.0074014,
        "meta_mean_motion_dot": 0.00012954,
        "meta_mean_motion_ddot": 0,
        "tle_line1": "1 37687U 99025ELC 25338.93860133  .00012954  00000+0  74014-2 0  9998",
        "tle_line2": "2 37687  98.2045  15.0265 0333745  20.5325  96.3024 13.85190890831462"
      },
      "geometry": {
        "type": "Point",
        "coordinates": [
          11.985991816050069,
          30.10998734950613
        ]
      }
    },
    {
      "type": "Feature",
      "properties": {
        "norad_id": 37689,
        "name": "FENGYUN 1C DEB",
        "group": "fengyun-1c-debris",
        "lat": 2.3395905932256547,
        "lon": -158.08892958646737,
        "alt_km": 730.6258634188325,
        "timestamp": "2025-12-06T22:38:43.017486+00:00",
        "meta_object_name": "FENGYUN 1C DEB",
        "meta_object_id": "1999-025ELE",
        "meta_epoch": "2025-12-06T01:55:54.427584",
        "meta_mean_motion": 14.48459711,
        "meta_eccentricity": 0.00203163,
        "meta_inclination": 98.9199,
        "meta_ra_of_asc_node": 20.6326,
        "meta_arg_of_pericenter": 259.8016,
        "meta_mean_anomaly": 100.0884,
        "meta_ephemeris_type": 0,
        "meta_classification_type": "U",
        "meta_norad_cat_id": 37689,
        "meta_element_set_no": 999,
        "meta_rev_at_epoch": 57716,
        "meta_bstar": 0.0039467762,
        "meta_mean_motion_dot": 0.00014819,
        "meta_mean_motion_ddot": 0,
        "tle_line1": "1 37689U 99025ELE 25340.08049106  .00014819  00000+0  39468-2 0  9994",
        "tle_line2": "2 37689  98.9199  20.6326 0020316 259.8016 100.0884 14.48459711577163"
      },
      "geometry": {
        "type": "Point",
        "coordinates": [
          -158.08892958646737,
          2.3395905932256547
        ]
      }
    }
  ]
}